NORAD_CAT_ID,OBJECT_NAME,OBJECT_TYPE,EPOCH,MEAN_MOTION,ECCENTRICITY,INCLINATION,RA_OF_ASC_NODE,ARG_OF_PERICENTER,MEAN_ANOMALY,BSTAR,MEAN_MOTION_DOT,MEAN_MOTION_DDOT,TLE_LINE0,TLE_LINE1,TLE_LINE2,SEMIMAJOR_AXIS,PERIOD,APOGEE,PERIGEE,DECAYED
50816.0,STARLINK-3342,PAYLOAD,2024-05-12 13:52:06,15.0870581,0.000117,53.2173,279.4147,104.4345,255.6777,-0.0013335,-0.0002137,0.0,0 STARLINK-3342,1 50816U 22001P   24133.57784964 -.00021370  00000-0 -13335-2 0  9990,2 50816  53.2173 279.4147 0001170 104.4345 255.6777 15.08705810131129,6918.291,95.446,540.965,539.346,0.0
50816.0,STARLINK-3342,PAYLOAD,2024-05-12 17:02:53,15.08701463,0.0001405,53.2171,278.8195,96.5773,263.5379,0.00028933,4.303e-05,0.0,0 STARLINK-3342,1 50816U 22001P   24133.71034509  .00004303  00000-0  28933-3 0  9995,2 50816  53.2171 278.8195 0001405  96.5773 263.5379 15.08701463129864,6918.304,95.446,541.141,539.197,0.0
50816.0,STARLINK-3342,PAYLOAD,2024-05-13 02:35:14,15.08766015,0.0001317,53.2172,277.0348,84.4518,275.6625,0.0028273,0.00044904,0.0,0 STARLINK-3342,1 50816U 22001P   24134.10780589  .00044904  00000-0  28273-2 0  9992,2 50816  53.2172 277.0348 0001317  84.4518 275.6625 15.08766015131204,6918.107,95.442,540.883,539.06,0.0
50816.0,STARLINK-3342,PAYLOAD,2024-05-13 18:29:05,15.08871874,0.0001653,53.2169,274.0606,69.0964,291.0205,0.00096674,0.00015145,0.0,0 STARLINK-3342,1 50816U 22001P   24134.77019793  .00015145  00000-0  96674-3 0  9993,2 50816  53.2169 274.0606 0001653  69.0964 291.0205 15.08871874131308,6917.783,95.436,540.791,538.504,0.0
50816.0,STARLINK-3342,PAYLOAD,2024-05-14 08:47:32,15.08876311,0.0001888,53.2138,271.3865,70.6346,289.485,0.00062245,9.642e-05,0.0,0 STARLINK-3342,1 50816U 22001P   24135.36634709  .00009642  00000-0  62245-3 0  9991,2 50816  53.2138 271.3865 0001888  70.6346 289.4850 15.08876311131390,6917.769,95.435,540.94,538.328,0.0
50816.0,STARLINK-3342,PAYLOAD,2024-05-15 02:16:45,15.08879609,0.0001232,53.2167,268.1153,64.3251,295.7868,0.00051526,7.931e-05,0.0,0 STARLINK-3342,1 50816U 22001P   24136.09497079  .00007931  00000-0  51526-3 0  9998,2 50816  53.2167 268.1153 0001232  64.3251 295.7868 15.08879609131509,6917.759,95.435,540.477,538.772,0.0
50816.0,STARLINK-3342,PAYLOAD,2024-05-15 13:24:27,15.08872927,0.0002116,53.2139,266.0314,81.1573,278.9659,0.00025065,3.707e-05,0.0,0 STARLINK-3342,1 50816U 22001P   24136.55864658  .00003707  00000-0  25065-3 0  9996,2 50816  53.2139 266.0314 0002116  81.1573 278.9659 15.08872927131574,6917.78,95.435,541.109,538.181,0.0
50816.0,STARLINK-3342,PAYLOAD,2024-05-15 14:59:50,15.08871622,0.0001766,53.2154,265.7356,76.8767,283.2422,0.00026317,3.906e-05,0.0,0 STARLINK-3342,1 50816U 22001P   24136.62488569  .00003906  00000-0  26317-3 0  9999,2 50816  53.2154 265.7356 0001766  76.8767 283.2422 15.08871622130307,6917.784,95.436,540.87,538.427,0.0
50816.0,STARLINK-3342,PAYLOAD,2024-05-16 11:39:50,15.08849316,0.0001525,53.2157,261.8658,106.208,253.908,7.6203e-05,9.25e-06,0.0,0 STARLINK-3342,1 50816U 22001P   24137.48600436  .00000925  00000-0  76203-4 0  9991,2 50816  53.2157 261.8658 0001525 106.2080 253.9080 15.08849316131716,6917.852,95.437,540.772,538.662,0.0
50816.0,STARLINK-3342,PAYLOAD,2024-05-16 14:50:36,15.08856239,0.000138,53.2162,261.2706,100.3822,259.7326,0.00015758,2.222e-05,0.0,0 STARLINK-3342,1 50816U 22001P   24137.61848244  .00002222  00000-0  15758-3 0  9996,2 50816  53.2162 261.2706 0001380 100.3822 259.7326 15.08856239130457,6917.831,95.437,540.65,538.741,0.0
50816.0,STARLINK-3342,PAYLOAD,2024-05-17 11:30:38,15.08836516,8.77e-05,53.2163,257.4093,69.4903,290.6183,0.00032706,4.921e-05,0.0,0 STARLINK-3342,1 50816U 22001P   24138.47961147  .00004921  00000-0  32706-3 0  9999,2 50816  53.2163 257.4093 0000877  69.4903 290.6183 15.08836516131866,6917.891,95.438,540.363,539.149,0.0
50816.0,STARLINK-3342,PAYLOAD,2024-05-17 14:41:25,15.08796119,0.0001228,53.2163,256.8144,97.4275,262.6857,-0.00089243,-0.00014446,0.0,0 STARLINK-3342,1 50816U 22001P   24138.61209566 -.00014446  00000-0 -89243-3 0  9998,2 50816  53.2163 256.8144 0001228  97.4275 262.6857 15.08796119130602,6918.015,95.44,540.729,539.03,0.0
50816.0,STARLINK-3342,PAYLOAD,2024-05-17 17:52:11,15.08792162,0.0001187,53.2172,256.2195,98.325,261.7877,-0.00069063,-0.00011248,0.0,0 STARLINK-3342,1 50816U 22001P   24138.74458111 -.00011248  00000-0 -69063-3 0  9999,2 50816  53.2172 256.2195 0001187  98.3250 261.7877 15.08792162131909,6918.027,95.441,540.713,539.07,0.0
50816.0,STARLINK-3342,PAYLOAD,2024-05-18 14:32:15,15.08807302,0.0001017,53.2169,252.3512,91.7283,268.3825,0.000174,2.48e-05,0.0,0 STARLINK-3342,1 50816U 22001P   24139.60573014  .00002480  00000-0  17400-3 0  9999,2 50816  53.2169 252.3512 0001017  91.7283 268.3825 15.08807302130751,6917.98,95.44,540.549,539.142,0.0
50816.0,STARLINK-3342,PAYLOAD,2024-05-19 00:04:34,15.08827768,8.62e-05,53.2167,250.5681,88.0108,272.0983,0.00066652,0.00010332,0.0,0 STARLINK-3342,1 50816U 22001P   24140.00317172  .00010332  00000-0  66652-3 0  9994,2 50816  53.2167 250.5681 0000862  88.0108 272.0983 15.08827768132092,6917.918,95.438,540.379,539.186,0.0
50816.0,STARLINK-3342,PAYLOAD,2024-05-19 14:23:01,15.08858515,0.0001153,53.217,247.8934,112.0185,248.0929,0.001172,0.00018423,0.0,0 STARLINK-3342,1 50816U 22001P   24140.59932294  .00018423  00000-0  11720-2 0  9990,2 50816  53.2170 247.8934 0001153 112.0185 248.0929 15.08858515130908,6917.824,95.436,540.486,538.891,0.0
50816.0,STARLINK-3342,PAYLOAD,2024-05-20 12:38:24,15.08865674,0.0001664,53.2176,243.7318,89.2724,270.8459,0.00052871,8.142e-05,0.0,0 STARLINK-3342,1 50816U 22001P   24141.52667185  .00008142  00000-0  52871-3 0  9998,2 50816  53.2176 243.7318 0001664  89.2724 270.8459 15.08865674132329,6917.802,95.436,540.818,538.516,0.0
50816.0,STARLINK-3342,PAYLOAD,2024-05-20 14:13:47,15.08869944,0.0001772,53.2168,243.4337,75.8816,284.2373,0.00058152,8.986e-05,0.0,0 STARLINK-3342,1 50816U 22001P   24141.59291013  .00008986  00000-0  58152-3 0  9992,2 50816  53.2168 243.4337 0001772  75.8816 284.2373 15.08869944131058,6917.789,95.436,540.88,538.428,0.0
50816.0,STARLINK-3342,PAYLOAD,2024-05-20 15:49:10,15.08875368,0.0001791,53.2168,243.1355,85.8493,274.2704,0.0006169,9.553e-05,0.0,0 STARLINK-3342,1 50816U 22001P   24141.65914604  .00009553  00000-0  61690-3 0  9999,2 50816  53.2168 243.1355 0001791  85.8493 274.2704 15.08875368132345,6917.772,95.435,540.876,538.398,0.0
50816.0,STARLINK-3342,PAYLOAD,2024-05-21 12:29:10,15.08855028,0.0001423,53.2171,239.271,97.4915,262.6239,-0.00022147,-3.812e-05,0.0,0 STARLINK-3342,1 50816U 22001P   24142.52025828 -.00003812  00000-0 -22147-3 0  9995,2 50816  53.2171 239.2710 0001423  97.4915 262.6239 15.08855028132479,6917.834,95.437,540.684,538.715,0.0
50816.0,STARLINK-3342,PAYLOAD,2024-05-21 14:04:33,15.08858209,0.0001375,53.2172,238.9737,91.5971,268.5179,-0.00012117,-2.217e-05,0.0,0 STARLINK-3342,1 50816U 22001P   24142.58649702 -.00002217  00000-0 -12117-3 0  9998,2 50816  53.2172 238.9737 0001375  91.5971 268.5179 15.08858209131200,6917.825,95.436,540.641,538.739,0.0
50816.0,STARLINK-3342,PAYLOAD,2024-05-22 12:19:57,15.08846613,0.0001598,53.2173,234.8108,77.8796,282.2375,-1.9335e-05,-5.96e-06,0.0,0 STARLINK-3342,1 50816U 22001P   24143.51385905 -.00000596  00000-0 -19335-4 0  9992,2 50816  53.2173 234.8108 0001598  77.8796 282.2375 15.08846613132621,6917.86,95.437,540.831,538.62,0.0
50816.0,STARLINK-3342,PAYLOAD,2024-05-23 05:49:12,15.08832024,0.0001763,53.2164,231.5433,68.0302,292.0878,-2.7931e-06,-3.33e-06,0.0,0 STARLINK-3342,1 50816U 22001P   24144.24250899 -.00000333  00000-0 -27931-5 0  9997,2 50816  53.2164 231.5433 0001763  68.0302 292.0878 15.08832024132735,6917.905,95.438,540.989,538.55,0.0
50816.0,STARLINK-3342,PAYLOAD,2024-05-23 12:10:45,15.08828661,0.0001253,53.216,230.3437,135.745,224.3642,-0.00017683,-3.1e-05,0.0,0 STARLINK-3342,1 50816U 22001P   24144.50746883 -.00003100  00000-0 -17683-3 0  9995,2 50816  53.2160 230.3437 0001253 135.7450 224.3642 15.08828661131493,6917.915,95.438,540.647,538.913,0.0
50816.0,STARLINK-3342,PAYLOAD,2024-05-24 05:39:59,15.08844738,0.000155,53.2165,227.069,143.822,216.2878,-9.7314e-05,-1.837e-05,0.0,0 STARLINK-3342,1 50816U 22001P   24145.23610703 -.00001837  00000-0 -97314-4 0  9992,2 50816  53.2165 227.0690 0001550 143.8220 216.2878 15.08844738132885,6917.866,95.437,540.803,538.659,0.0
50816.0,STARLINK-3342,PAYLOAD,2024-05-24 12:01:31,15.08865336,0.0001211,53.2161,225.8829,85.1936,274.9194,0.00044348,6.782e-05,0.0,0 STARLINK-3342,1 50816U 22001P   24145.50105804  .00006782  00000-0  44348-3 0  9993,2 50816  53.2161 225.8829 0001211  85.1936 274.9194 15.08865336132921,6917.803,95.436,540.506,538.83,0.0
50816.0,STARLINK-3342,PAYLOAD,2024-05-25 05:30:46,15.08843701,0.0001004,53.215,222.6082,136.4548,223.6524,0.00021768,3.179e-05,0.0,0 STARLINK-3342,1 50816U 22001P   24146.22970466  .00003179  00000-0  21768-3 0  9995,2 50816  53.2150 222.6082 0001004 136.4548 223.6524 15.08843701133037,6917.869,95.437,540.429,539.04,0.0
50816.0,STARLINK-3342,PAYLOAD,2024-05-25 11:52:19,15.08841404,9.54e-05,53.2154,221.4228,102.9157,257.1941,0.00023375,3.434e-05,0.0,0 STARLINK-3342,1 50816U 22001P   24146.49466744  .00003434  00000-0  23375-3 0  9993,2 50816  53.2154 221.4228 0000954 102.9157 257.1941 15.08841404131791,6917.876,95.437,540.401,539.081,0.0
50816.0,STARLINK-3342,PAYLOAD,2024-05-25 21:24:38,15.0883716,0.0001059,53.2159,219.6452,112.3759,247.7345,1.7907e-05,-3e-08,0.0,0 STARLINK-3342,1 50816U 22001P   24146.89210729 -.00000003  00000-0  17907-4 0  9992,2 50816  53.2159 219.6452 0001059 112.3759 247.7345 15.08837160133131,6917.889,95.438,540.487,539.021,0.0
50816.0,STARLINK-3342,PAYLOAD,2024-05-26 11:43:05,15.08848438,0.0001188,53.2164,216.9658,90.3063,269.8065,-0.0001147,-2.113e-05,0.0,0 STARLINK-3342,1 50816U 22001P   24147.48826039 -.00002113  00000-0 -11470-3 0  9998,2 50816  53.2164 216.9658 0001188  90.3063 269.8065 15.08848438133225,6917.855,95.437,540.541,538.898,0.0
